#aV2011  4 30  0  0   .00000000      96 DD+AD WGS84 FIT  NGA
## 1633 518400.00000000   900.00000000 55681  .0000000000000
+   32     1  2  3  4  5  6  7  8  9 10 11 12 13 14 15 16 17
+         18 19 20 21 22 23 24 25 26 27 28 29 30 31 32  0  0
+          0  0  0  0  0  0  0  0  0  0  0  0  0  0  0  0  0
+          0  0  0  0  0  0  0  0  0  0  0  0  0  0  0  0  0
+          0  0  0  0  0  0  0  0  0  0  0  0  0  0  0  0  0
++         0  0  0  0  0  0  0  0  0  0  0  0  0  0  0  0  0
++         0  0  0  0  0  0  0  0  0  0  0  0  0  0  0  0  0
++         0  0  0  0  0  0  0  0  0  0  0  0  0  0  0  0  0
++         0  0  0  0  0  0  0  0  0  0  0  0  0  0  0  0  0
++         0  0  0  0  0  0  0  0  0  0  0  0  0  0  0  0  0
%c cc cc ccc ccc cccc cccc cccc cccc ccccc ccccc ccccc ccccc
%c cc cc ccc ccc cccc cccc cccc cccc ccccc ccccc ccccc ccccc
%f  0.0000000  0.000000000  0.00000000000  0.000000000000000
%f  0.0000000  0.000000000  0.00000000000  0.000000000000000
%i    0    0    0    0      0      0      0      0         0
%i    0    0    0    0      0      0      0      0         0
/*      NGA, ST. LOUIS,MO.                                  
/*   EPHEMERIS COMPUTED FROM  3 DAYS OF DATA                
/* CCCCCCCCCCCCCCCCCCCCCCCCCCCCCCCCCCCCCCCCCCCCCCCCCCCCCCCCC
/* CCCCCCCCCCCCCCCCCCCCCCCCCCCCCCCCCCCCCCCCCCCCCCCCCCCCCCCCC
*  2011  4 30 20 15   .00000000                                                 
P  1   7536.335510 -22359.490030  11928.454769   -226.000813                    
V  1   2745.426089  15295.026785  26820.104289      -.024123                    
P  2   4193.401513  18034.306641  19253.416392    333.819572                    
V  2 -22145.775957 -10025.951393  13758.947545       .021130                    
P  3   2347.105860 -19433.832592 -18226.262395    708.997762                    
V  3  18858.837240 -12533.004381  16482.956463       .050893                    
P  4 -10583.792490  11855.197983  21104.294535    102.807612                    
V  4 -23881.428183 -13300.793459  -4117.231677       .105312                    
P  5   1590.980657  26434.447053  -1077.393889   -152.680170                    
V  5  -3055.975379   1448.623733  31648.784372      -.057643                    
P  6   7918.123308 -19622.904479 -15755.362456    559.128874                    
V  6  18313.673054  -9500.285640  21045.441199     -1.005212                    
P  7 -23497.870212  -3601.926659 -12058.772102      9.620551                    
V  7 -12437.865943  -8955.104754  26703.045194       .011153                    
P  8 -18054.875993   3207.058511 -19397.699260      7.843786                    
V  8 -20136.210087 -13805.708258  15908.800082       .000799                    
P  9  20647.943042  15569.042257  -6618.674112     77.020653                    
V  9  -7684.815907  -1804.674319 -30786.249566       .024096                    
P 10  -9216.149216  20850.997837  13096.924872    -72.805989                    
V 10  -2966.344103 -17130.641917  25146.810708      -.008034                    
P 11 -21117.182363 -13393.006326  -9752.033464   -147.013180                    
V 11  12639.701624  -1127.572769 -26348.103945      -.032366                    
P 12  11513.793176  17323.766842  16644.559913     -7.913203                    
V 12  -1163.127064  20999.801068 -20911.522116       .027367                    
P 13 -23522.419153   3308.374733  11794.516589    273.005112                    
V 13  12756.640111  -8315.275554  27378.345983      -.015461                    
P 14  21257.975143 -15112.376617   4760.718539    147.184979                    
V 14   6183.280553   -879.800874 -31565.662800       .023231                    
P 15  11457.498723  10822.751359 -21387.528293   -131.398537                    
V 15 -22677.602226  15012.574115  -4388.580729       .027231                    
P 16    302.258050 -26390.757499    261.961149   -168.888209                    
V 16   2597.364882    314.801362  32287.627347      -.026844                    
P 17 -21027.725688  15508.494038   4186.852038    184.369688                    
V 17  -5959.270900     35.517191 -31302.698459       .000311                    
P 18  15218.917527  -5644.350802 -20655.655873    134.598656                    
V 18   1328.533639  27101.178571  -6703.556417       .019703                    
P 19  -7307.936735 -13414.816356 -21728.855600   -135.835397                    
V 19  24669.185006 -12377.182254   -312.000871      -.039157                    
P 20 -14189.822255 -13343.685065  17935.995557     49.100477                    
V 20    437.015215 -23219.598620 -16729.657521       .001412                    
P 21  23361.600253   2206.552939 -12600.101086   -141.103314                    
V 21  13141.212409  10306.027925  24736.994103      -.026023                    
P 22  11572.283412 -17769.226951 -15760.453425    149.461242                    
V 22   2799.378705  20427.152967 -20858.796764      -.004936                    
P 23 -16636.603125  -6098.071393  19888.431294    309.687055                    
V 23  21065.459741 -13763.843040  13060.045090      -.026451                    
P 24 -21863.662555 -15188.780093  -2174.155661    386.048518                    
V 24   3936.028986  -1050.420368 -31142.537988       .031664                    
P 25  15145.514311   2928.737534  21606.394291      -.822070                    
V 25    811.879145  27453.626343  -4263.914256       .004921                    
P 26  -1683.852279  16592.941168 -21161.420968    -17.315738                    
V 26 -23054.552502  11051.904877  11206.795833      -.107233                    
P 27  17990.736742  16374.210828 -10373.417752    260.513790                    
V 27 -13437.125039  -4418.295751 -28179.161295       .036851                    
P 28 -12447.401960  14170.217503 -18076.979883     34.790720                    
V 28  -1314.219644 -24096.436526 -17737.179927       .025400                    
P 29  22153.193221   -751.337051  14682.463603    203.978217                    
V 29 -15093.363250  10932.992305  23504.138292       .029675                    
P 30   3922.403503 -24823.588804   8135.303951    340.787419                    
V 30   3516.359450  10677.423709  29438.903396       .027624                    
P 31   7670.667410 -12774.856671  22190.530370     73.834147                    
V 31  24210.436919  13311.253693   -504.772869       .053319                    
P 32  -8612.647745 -21333.876635  13904.132554   -245.191945                    
V 32   2923.953133 -16896.000045 -24211.089052      -.072780                    
EOF
